{
  "norad_id": 67058,
  "name": "STARLINK-35767",
  "history": [
    {
      "epoch": "2026-03-28T21:32:46.344768Z",
      "apogee_km": 484.21168765547736,
      "perigee_km": 481.79793796573085,
      "latitude_deg": 5.63785678704678e-06,
      "longitude_deg": 140.36349561268437,
      "height_km": 482.61737181046306,
      "semi_major_axis_km": 6861.141812810604,
      "eccentricity": 0.0001759,
      "inclination_deg": 43.0019,
      "raan_deg": 289.8682,
      "arg_perigee_deg": 277.8412,
      "mean_anomaly_deg": 82.224,
      "mean_motion_rev_day": 15.27594789
    }
  ]
}